MACSAT 2 (M 2)          
1 20608U 90043B   13024.77535292  .00000387  00000-0  54162-4 0  8610
2 20608  89.7455  39.4998 0090221 286.3653 175.6424 14.73031582217211
TUBSAT A                
1 21577U 91050D   13024.04143229  .00000067  00000-0  36410-4 0  5719
2 21577  98.6419 347.2405 0007140  81.2903 278.9090 14.38836452129541
S80/T                   
1 22078U 92052C   13024.62384574 -.00000037  00000-0  10000-3 0  2725
2 22078  66.0860  79.5942 0007544 345.0358  15.0435 12.86753372961245
HEALTHSAT 1             
1 22827U 93061E   13024.46565181  .00000089  00000-0  50883-4 0  3300
2 22827  98.5993 332.7312 0008008 319.6136 149.4100 14.30535290  8528
TUBSAT B                
1 22970U 94003B   13024.34035096  .00000097  00000-0  22036-3 0   865
2 22970  82.5649 300.0236 0016028 190.9677 318.8508 13.16930786913343
CERISE                  
1 23606U 95033B   13024.20616524  .00001140  00000-0  13099-3 0  9792
2 23606  98.3548 225.0268 0006737 151.7363 208.4218 14.87948757947432
UPM/LBSAT               
1 23607U 95033C   13023.91105442  .00000515  00000-0  82854-4 0  1920
2 23607  98.2145 145.8923 0006225  18.5943 341.5488 14.75861380943165
FAISAT 2V               
1 24954U 97052B   13024.64484538  .00000042  00000-0  25302-4 0  6875
2 24954  82.9203  48.9313 0039918  29.8258 119.7071 13.79764927772335
MUBLCOM                 
1 25736U 99026B   13024.54543771  .00000392  00000-0  12110-3 0  8233
2 25736  97.6716 219.5456 0004471 325.3399  34.7502 14.45832265721037
RUBIN-3 & SL-8 R/B      
1 27561U 02054C   13024.04984091  .00000225  00000-0  62429-4 0  8037
2 27561  98.0263 177.1285 0048209 108.7051 251.9364 14.54337357538869
APRIZESAT 2             
1 28366U 04025A   13023.85042942  .00000033  00000-0  24389-4 0  3944
2 28366  98.2509 332.1712 0108897 174.1274 186.1222 14.35937138449157
SAUDICOMSAT 1           
1 28369U 04025D   13023.99662621  .00000152  00000-0  48856-4 0  4548
2 28369  97.9789  15.2398 0033249 302.5984  57.2005 14.51169167453887
SAUDICOMSAT 2           
1 28370U 04025E   13024.48427308  .00000107  00000-0  40920-4 0  4506
2 28370  98.0830 359.6656 0059125  12.0586 348.1995 14.46248899452425
APRIZESAT 1             
1 28372U 04025G   13024.57360020  .00000102  00000-0  38145-4 0  4405
2 28372  98.0323   6.7382 0046725 336.1592  23.7437 14.48605606453185
NANOSAT-1               
1 28493U 04049B   13024.08361751  .00000527  00000-0  93696-4 0  4596
2 28493  98.3834  37.1946 0005494  58.6237 301.5523 14.71429077434727
SAUDICOMSAT 7           
1 31119U 07012C   13024.68638899  .00000393  00000-0  88724-4 0  7583
2 31119  97.8316  46.7889 0062783  79.3641 281.4608 14.60102629307694
SAUDICOMSAT 6           
1 31121U 07012E   13024.68546484  .00000373  00000-0  89075-4 0  7560
2 31121  97.8498  36.8857 0079535 111.0497 249.9218 14.56944367307042
SAUDICOMSAT 5           
1 31124U 07012H   13024.58468655  .00000408  00000-0  89121-4 0  7645
2 31124  97.8267  52.3958 0054130  64.1960 296.4809 14.61724370308018
SAUDICOMSAT 3           
1 31125U 07012J   13024.61235488  .00000419  00000-0  88749-4 0  7799
2 31125  97.8248  57.9436 0045760  49.2372 311.2775 14.63304201308343
SAUDICOMSAT 4           
1 31127U 07012L   13023.67102127  .00000388  00000-0  89803-4 0  7617
2 31127  97.8400  41.1500 0070931  97.5595 263.3653 14.58618425307232
APRIZESAT 4             
1 35684U 09041D   13024.77348221  .00000022  00000-0  10791-4 0   980
2 35684  98.0588 301.4104 0048503 223.7436 135.9913 14.76962186188127
APRIZESAT 3             
1 35686U 09041F   13024.22301844  .00000405  00000-0  53308-4 0  1147
2 35686  98.1009 316.2565 0077561 189.0985 170.8830 14.83885733188881
AISSAT 1                
1 36797U 10035C   13024.76910277  .00000951  00000-0  11978-3 0  7486
2 36797  98.0448 108.5389 0012015 174.1681 186.0176 14.82026143137302
